[{"OBJECT_NAME":"STARLINK-1627","OBJECT_ID":"2020-057BD","EPOCH":"2026-03-10T00:00:02.999808","MEAN_MOTION":15.7182535,"ECCENTRICITY":0.00032384,"INCLINATION":53.043,"RA_OF_ASC_NODE":223.2369,"ARG_OF_PERICENTER":42.9244,"MEAN_ANOMALY":228.4026,"EPHEMERIS_TYPE":0,"CLASSIFICATION_TYPE":"U","NORAD_CAT_ID":46168,"ELEMENT_SET_NO":999,"REV_AT_EPOCH":596,"BSTAR":0.00036555083,"MEAN_MOTION_DOT":0.00048075,"MEAN_MOTION_DDOT":0},{"OBJECT_NAME":"STARLINK-11555 [DTC]","OBJECT_ID":"2025-027J","EPOCH":"2026-03-08T22:56:21.463872","MEAN_MOTION":15.70910218,"ECCENTRICITY":0.00015206,"INCLINATION":43.0001,"RA_OF_ASC_NODE":352.3601,"ARG_OF_PERICENTER":284.4853,"MEAN_ANOMALY":75.5846,"EPHEMERIS_TYPE":0,"CLASSIFICATION_TYPE":"U","NORAD_CAT_ID":62915,"ELEMENT_SET_NO":999,"REV_AT_EPOCH":6307,"BSTAR":0.0012842049,"MEAN_MOTION_DOT":0.00168204,"MEAN_MOTION_DDOT":0}]
